OBJECT_NAME,OBJECT_ID,EPOCH,MEAN_MOTION,ECCENTRICITY,INCLINATION,RA_OF_ASC_NODE,ARG_OF_PERICENTER,MEAN_ANOMALY,EPHEMERIS_TYPE,CLASSIFICATION_TYPE,NORAD_CAT_ID,ELEMENT_SET_NO,REV_AT_EPOCH,BSTAR,MEAN_MOTION_DOT,MEAN_MOTION_DDOT
STARLINK-31754,2024-071E,2026-07-17T15:33:25.019136,15.27579341,.0002062,43.0033,333.3743,275.6673,84.3943,0,U,59488,999,12799,.32238E-4,.625E-5,0
STARLINK-31638,2024-071F,2026-07-17T17:19:51.665664,15.27586709,.0001143,43.0031,325.2799,276.8719,83.2003,0,U,59489,999,12809,.4786E-4,.1055E-4,0
STARLINK-31670,2024-071G,2026-07-17T16:13:26.167584,15.27571660,.0001391,43.0002,337.0596,231.5702,128.5025,0,U,59490,999,12795,-.42997E-5,-.38E-5,0
STARLINK-31712,2024-071H,2026-07-17T16:15:15.595776,15.27605143,.0000865,42.9995,337.0513,250.0352,110.0406,0,U,59491,999,12795,-.47126E-3,-.13217E-3,0
STARLINK-31684,2024-071J,2026-07-17T09:22:20.576352,15.27577523,.0000623,43.0002,334.8785,253.6914,106.3869,0,U,59492,999,12795,.15251E-4,.158E-5,0
STARLINK-31678,2024-071K,2026-07-17T17:24:13.582080,15.27576318,.0001084,43.0014,333.0909,276.5304,83.5424,0,U,59493,999,12682,.3426E-5,-.168E-5,0
STARLINK-31744,2024-071L,2026-07-17T17:18:41.152896,15.27570957,.0001252,43.0007,333.0594,275.9081,84.1628,0,U,59494,999,12800,.25087E-4,.428E-5,0
STARLINK-31719,2024-071M,2026-07-17T16:24:33.921216,15.27571228,.0001637,43.0046,325.8540,252.7979,107.2694,0,U,59495,999,12808,.14426E-4,.135E-5,0
STARLINK-31728,2024-071N,2026-07-17T15:54:57.316032,15.27571465,.0002017,43.0055,325.6987,281.0586,79.0038,0,U,59496,999,12808,.17078E-3,.4439E-4,0
STARLINK-31720,2024-071P,2026-07-17T16:48:37.063008,15.27574542,.0001341,43.0022,325.9834,273.3001,86.7697,0,U,59497,999,12808,.1274E-4,.88E-6,0
STARLINK-31731,2024-071Q,2026-07-17T16:55:47.538048,15.27578088,.0001138,43.0011,325.1557,271.3721,88.7000,0,U,59498,999,12809,-.33749E-4,-.119E-4,0
STARLINK-31742,2024-071R,2026-07-17T17:08:45.502656,15.27573938,.000109,43.0029,325.2214,275.0035,85.0693,0,U,59499,999,12809,-.19395E-4,-.796E-5,0
STARLINK-31512,2024-071S,2026-07-17T07:14:05.334432,15.27576164,.0001016,43.0030,287.6180,265.1835,94.8900,0,U,59500,999,12848,-.35549E-5,-.36E-5,0
STARLINK-31458,2024-071T,2026-07-17T17:16:09.756768,15.27571671,.0001181,43.0021,325.2615,268.6129,91.4588,0,U,59501,999,12809,-.33674E-4,-.1188E-4,0
STARLINK-31357,2024-071U,2026-07-17T15:01:30.511776,15.27580991,.0001668,43.0040,326.2783,276.5198,83.5464,0,U,59502,999,12807,.28285E-4,.516E-5,0
STARLINK-31508,2024-071V,2026-07-16T20:17:10.520160,15.27580573,.00008557,43.0007,330.7410,253.9788,106.0970,0,U,59503,999,12795,.79935701E-4,.1938E-4,0
STARLINK-31535,2024-071W,2026-07-17T09:38:58.886016,15.27568891,.0001044,43.0026,334.9623,251.1910,108.8828,0,U,59504,999,12795,-.49123E-4,-.1613E-4,0
STARLINK-31533,2024-071X,2026-07-17T09:01:31.838880,15.27578631,.0001563,43.0016,327.8444,276.3669,83.7004,0,U,59505,999,12803,.17886E-4,.23E-5,0
STARLINK-31524,2024-071Y,2026-07-17T16:16:39.307008,15.27577064,.0001269,43.0013,318.6978,274.0553,86.0154,0,U,59506,999,12816,.27398E-4,.492E-5,0
STARLINK-31635,2024-073A,2026-07-17T08:59:43.304064,15.27575376,.000156,43.0020,305.2590,269.7662,90.3011,0,U,59511,999,12601,.12287E-4,.76E-6,0
STARLINK-31650,2024-073B,2026-07-17T14:33:59.896800,15.27575891,.0000473,43.0020,304.4145,282.2249,77.8549,0,U,59512,999,12604,.31197E-5,-.176E-5,0
STARLINK-31658,2024-073C,2026-07-17T15:14:18.841056,15.27580040,.0001984,43.0029,263.8888,297.9312,62.1339,0,U,59513,999,12650,.35499E-4,.715E-5,0
STARLINK-31669,2024-073E,2026-07-17T17:05:18.115872,15.27575819,.0001003,43.0025,303.4860,222.6305,137.4469,0,U,59515,999,12606,.13969E-5,-.224E-5,0
STARLINK-31671,2024-073F,2026-07-17T16:22:57.224064,15.27578210,.0001307,43.0037,304.1193,268.2055,91.8647,0,U,59516,999,12605,.14839E-4,.146E-5,0
STARLINK-31674,2024-073G,2026-07-17T15:47:48.003936,15.27581878,.0001241,43.0034,303.9418,265.1344,94.9366,0,U,59517,999,12605,.87825E-4,.2155E-4,0
STARLINK-31679,2024-073J,2026-07-17T07:46:09.374304,15.27578948,.0001475,43.0022,295.3406,281.8674,78.2012,0,U,59519,999,12612,.11574E-4,.56E-6,0
STARLINK-31370,2024-073K,2026-07-17T16:19:13.805760,15.27647097,.0002446,43.0053,304.1085,291.2630,68.7960,0,U,59520,999,12605,-.42E-3,-.11826E-3,0
STARLINK-31404,2024-073L,2026-07-17T08:43:16.688640,15.27570812,.0001257,43.0013,306.0189,227.4967,132.5778,0,U,59521,999,12600,.64655E-4,.1517E-4,0
STARLINK-31453,2024-073M,2026-07-17T14:04:05.329056,15.27604000,.0002026,42.9991,286.6586,260.6341,99.4282,0,U,59522,999,12624,.98506E-3,.26964E-3,0
STARLINK-31476,2024-073N,2026-07-17T16:13:42.184416,15.27576398,.0001275,43.0044,304.0741,267.9499,92.1207,0,U,59523,999,12605,.7325E-6,-.242E-5,0
