STARLINK-31754          
1 59488U 24071E   26198.64820624  .00000625  00000+0  32238-4 0  9990
2 59488  43.0033 333.3743 0002062 275.6673  84.3943 15.27579341127994
STARLINK-31638          
1 59489U 24071F   26198.72212576  .00001055  00000+0  47860-4 0  9996
2 59489  43.0031 325.2799 0001143 276.8719  83.2003 15.27586709128090
STARLINK-31670          
1 59490U 24071G   26198.67599731 -.00000380  00000+0 -42997-5 0  9992
2 59490  43.0002 337.0596 0001391 231.5702 128.5025 15.27571660127952
STARLINK-31712          
1 59491U 24071H   26198.67726384 -.00013217  00000+0 -47126-3 0  9999
2 59491  42.9995 337.0513 0000865 250.0352 110.0406 15.27605143127956
STARLINK-31684          
1 59492U 24071J   26198.39051593  .00000158  00000+0  15251-4 0  9995
2 59492  43.0002 334.8785 0000623 253.6914 106.3869 15.27577523127950
STARLINK-31678          
1 59493U 24071K   26198.72515720 -.00000168  00000+0  34260-5 0  9994
2 59493  43.0014 333.0909 0001084 276.5304  83.5424 15.27576318126821
STARLINK-31744          
1 59494U 24071L   26198.72130964  .00000428  00000+0  25087-4 0  9992
2 59494  43.0007 333.0594 0001252 275.9081  84.1628 15.27570957128004
STARLINK-31719          
1 59495U 24071M   26198.68372594  .00000135  00000+0  14426-4 0  9995
2 59495  43.0046 325.8540 0001637 252.7979 107.2694 15.27571228128084
STARLINK-31728          
1 59496U 24071N   26198.66316338  .00004439  00000+0  17078-3 0  9994
2 59496  43.0055 325.6987 0002017 281.0586  79.0038 15.27571465128081
STARLINK-31720          
1 59497U 24071P   26198.70042897  .00000088  00000+0  12740-4 0  9994
2 59497  43.0022 325.9834 0001341 273.3001  86.7697 15.27574542128080
STARLINK-31731          
1 59498U 24071Q   26198.70541132 -.00001190  00000+0 -33749-4 0  9990
2 59498  43.0011 325.1557 0001138 271.3721  88.7000 15.27578088128094
STARLINK-31742          
1 59499U 24071R   26198.71441554 -.00000796  00000+0 -19395-4 0  9991
2 59499  43.0029 325.2214 0001090 275.0035  85.0693 15.27573938128098
STARLINK-31512          
1 59500U 24071S   26198.30145063 -.00000360  00000+0 -35549-5 0  9992
2 59500  43.0030 287.6180 0001016 265.1835  94.8900 15.27576164128488
STARLINK-31458          
1 59501U 24071T   26198.71955737 -.00001188  00000+0 -33674-4 0  9990
2 59501  43.0021 325.2615 0001181 268.6129  91.4588 15.27571671128098
STARLINK-31357          
1 59502U 24071U   26198.62604759  .00000516  00000+0  28285-4 0  9990
2 59502  43.0040 326.2783 0001668 276.5198  83.5464 15.27580991128079
STARLINK-31508          
1 59503U 24071V   26197.84526065  .00001938  00000+0  79936-4 0  9995
2 59503  43.0007 330.7410 0000855 253.9788 106.0970 15.27580573127956
STARLINK-31535          
1 59504U 24071W   26198.40207044 -.00001613  00000+0 -49123-4 0  9999
2 59504  43.0026 334.9623 0001044 251.1910 108.8828 15.27568891127959
STARLINK-31533          
1 59505U 24071X   26198.37606295  .00000230  00000+0  17886-4 0  9990
2 59505  43.0016 327.8444 0001563 276.3669  83.7004 15.27578631128037
STARLINK-31524          
1 59506U 24071Y   26198.67823272  .00000492  00000+0  27398-4 0  9999
2 59506  43.0013 318.6978 0001269 274.0553  86.0154 15.27577064128160
STARLINK-31635          
1 59511U 24073A   26198.37480676  .00000076  00000+0  12287-4 0  9990
2 59511  43.0020 305.2590 0001560 269.7662  90.3011 15.27575376126018
STARLINK-31650          
1 59512U 24073B   26198.60694325 -.00000176  00000+0  31197-5 0  9999
2 59512  43.0020 304.4145 0000473 282.2249  77.8549 15.27575891126040
STARLINK-31658          
1 59513U 24073C   26198.63494029  .00000715  00000+0  35499-4 0  9998
2 59513  43.0029 263.8888 0001984 297.9312  62.1339 15.27580040126501
STARLINK-31669          
1 59515U 24073E   26198.71201523 -.00000224  00000+0  13969-5 0  9999
2 59515  43.0025 303.4860 0001003 222.6305 137.4469 15.27575819126068
STARLINK-31671          
1 59516U 24073F   26198.68260676  .00000146  00000+0  14839-4 0  9998
2 59516  43.0037 304.1193 0001307 268.2055  91.8647 15.27578210126052
STARLINK-31674          
1 59517U 24073G   26198.65819449  .00002155  00000+0  87825-4 0  9991
2 59517  43.0034 303.9418 0001241 265.1344  94.9366 15.27581878126057
STARLINK-31679          
1 59519U 24073J   26198.32371961  .00000056  00000+0  11574-4 0  9995
2 59519  43.0022 295.3406 0001475 281.8674  78.2012 15.27578948126122
STARLINK-31370          
1 59520U 24073K   26198.68002090 -.00011826  00000+0 -42000-3 0  9996
2 59520  43.0053 304.1085 0002446 291.2630  68.7960 15.27647097126056
STARLINK-31404          
1 59521U 24073L   26198.36338760  .00001517  00000+0  64655-4 0  9993
2 59521  43.0013 306.0189 0001257 227.4967 132.5778 15.27570812126004
STARLINK-31453          
1 59522U 24073M   26198.58617279  .00026964  00000+0  98506-3 0  9997
2 59522  42.9991 286.6586 0002026 260.6341  99.4282 15.27604000126246
STARLINK-31476          
1 59523U 24073N   26198.67618269 -.00000242  00000+0  73250-6 0  9992
2 59523  43.0044 304.0741 0001275 267.9499  92.1207 15.27576398126059
